{
  "type": "FeatureCollection",
  "features": [
    {
      "type": "Feature",
      "properties": {
        "norad_id": 66947,
        "name": "STARLINK-36089",
        "group": "last-30-days",
        "lat": 16.003965997993696,
        "lon": 41.457916761322934,
        "alt_km": 307.01236351212356,
        "timestamp": "2025-12-16T23:36:34.925988+00:00",
        "meta_object_name": "STARLINK-36089",
        "meta_object_id": "2025-286Y",
        "meta_epoch": "2025-12-16T06:00:02.999808",
        "meta_mean_motion": 15.8989015,
        "meta_eccentricity": 9.087e-05,
        "meta_inclination": 53.1559,
        "meta_ra_of_asc_node": 32.7597,
        "meta_arg_of_pericenter": 84.8573,
        "meta_mean_anomaly": 56.3897,
        "meta_ephemeris_type": 0,
        "meta_classification_type": "U",
        "meta_norad_cat_id": 66947,
        "meta_element_set_no": 999,
        "meta_rev_at_epoch": 255,
        "meta_bstar": -0.0050505852,
        "meta_mean_motion_dot": -0.01355892,
        "meta_mean_motion_ddot": 0,
        "tle_line1": "1 66947U 25286Y   25350.25003472 -.01355892  00000+0 -50506-2 0  9995",
        "tle_line2": "2 66947  53.1559  32.7597 0000908  84.8573  56.3897 15.89890150  2553"
      },
      "geometry": {
        "type": "Point",
        "coordinates": [
          41.457916761322934,
          16.003965997993696
        ]
      }
    },
    {
      "type": "Feature",
      "properties": {
        "norad_id": 66948,
        "name": "STARLINK-36116",
        "group": "last-30-days",
        "lat": 14.472004543562973,
        "lon": 40.201307958306245,
        "alt_km": 307.4517411331126,
        "timestamp": "2025-12-16T23:36:34.925999+00:00",
        "meta_object_name": "STARLINK-36116",
        "meta_object_id": "2025-286Z",
        "meta_epoch": "2025-12-16T06:00:02.999808",
        "meta_mean_motion": 15.89846574,
        "meta_eccentricity": 8.108e-05,
        "meta_inclination": 53.156,
        "meta_ra_of_asc_node": 32.7636,
        "meta_arg_of_pericenter": 92.3145,
        "meta_mean_anomaly": 47.083,
        "meta_ephemeris_type": 0,
        "meta_classification_type": "U",
        "meta_norad_cat_id": 66948,
        "meta_element_set_no": 999,
        "meta_rev_at_epoch": 255,
        "meta_bstar": -0.0050445903,
        "meta_mean_motion_dot": -0.01351752,
        "meta_mean_motion_ddot": 0,
        "tle_line1": "1 66948U 25286Z   25350.25003472 -.01351752  00000+0 -50446-2 0  9990",
        "tle_line2": "2 66948  53.1560  32.7636 0000810  92.3145  47.0830 15.89846574  2556"
      },
      "geometry": {
        "type": "Point",
        "coordinates": [
          40.201307958306245,
          14.472004543562973
        ]
      }
    },
    {
      "type": "Feature",
      "properties": {
        "norad_id": 66949,
        "name": "STARLINK-36096",
        "group": "last-30-days",
        "lat": 17.564736357071375,
        "lon": 42.76464297455024,
        "alt_km": 306.64021980068355,
        "timestamp": "2025-12-16T23:36:34.926011+00:00",
        "meta_object_name": "STARLINK-36096",
        "meta_object_id": "2025-286AA",
        "meta_epoch": "2025-12-16T06:00:02.999808",
        "meta_mean_motion": 15.899348,
        "meta_eccentricity": 8.724e-05,
        "meta_inclination": 53.1561,
        "meta_ra_of_asc_node": 32.7558,
        "meta_arg_of_pericenter": 82.7261,
        "meta_mean_anomaly": 60.4136,
        "meta_ephemeris_type": 0,
        "meta_classification_type": "U",
        "meta_norad_cat_id": 66949,
        "meta_element_set_no": 999,
        "meta_rev_at_epoch": 255,
        "meta_bstar": -0.0050578257,
        "meta_mean_motion_dot": -0.01360306,
        "meta_mean_motion_ddot": 0,
        "tle_line1": "1 66949U 25286AA  25350.25003472 -.01360306  00000+0 -50578-2 0  9992",
        "tle_line2": "2 66949  53.1561  32.7558 0000872  82.7261  60.4136 15.89934800  2559"
      },
      "geometry": {
        "type": "Point",
        "coordinates": [
          42.76464297455024,
          17.564736357071375
        ]
      }
    },
    {
      "type": "Feature",
      "properties": {
        "norad_id": 66950,
        "name": "STARLINK-36111",
        "group": "last-30-days",
        "lat": 20.793306496268425,
        "lon": 45.56860475327191,
        "alt_km": 305.943658979857,
        "timestamp": "2025-12-16T23:36:34.926021+00:00",
        "meta_object_name": "STARLINK-36111",
        "meta_object_id": "2025-286AB",
        "meta_epoch": "2025-12-16T06:00:02.999808",
        "meta_mean_motion": 15.9002195,
        "meta_eccentricity": 8.706e-05,
        "meta_inclination": 53.156,
        "meta_ra_of_asc_node": 32.7475,
        "meta_arg_of_pericenter": 91.2768,
        "meta_mean_anomaly": 55.8222,
        "meta_ephemeris_type": 0,
        "meta_classification_type": "U",
        "meta_norad_cat_id": 66950,
        "meta_element_set_no": 999,
        "meta_rev_at_epoch": 255,
        "meta_bstar": -0.0050578886,
        "meta_mean_motion_dot": -0.01365678,
        "meta_mean_motion_ddot": 0,
        "tle_line1": "1 66950U 25286AB  25350.25003472 -.01365678  00000+0 -50579-2 0  9992",
        "tle_line2": "2 66950  53.1560  32.7475 0000870  91.2768  55.8222 15.90021950  2552"
      },
      "geometry": {
        "type": "Point",
        "coordinates": [
          45.56860475327191,
          20.793306496268425
        ]
      }
    },
    {
      "type": "Feature",
      "properties": {
        "norad_id": 66951,
        "name": "STARLINK-35999",
        "group": "last-30-days",
        "lat": 22.482550085920153,
        "lon": 47.09979629422976,
        "alt_km": 305.5317760035741,
        "timestamp": "2025-12-16T23:36:34.926031+00:00",
        "meta_object_name": "STARLINK-35999",
        "meta_object_id": "2025-286AC",
        "meta_epoch": "2025-12-16T06:00:02.999808",
        "meta_mean_motion": 15.90072189,
        "meta_eccentricity": 9.103e-05,
        "meta_inclination": 53.1561,
        "meta_ra_of_asc_node": 32.7432,
        "meta_arg_of_pericenter": 89.253,
        "meta_mean_anomaly": 59.9458,
        "meta_ephemeris_type": 0,
        "meta_classification_type": "U",
        "meta_norad_cat_id": 66951,
        "meta_element_set_no": 999,
        "meta_rev_at_epoch": 255,
        "meta_bstar": -0.0050863798,
        "meta_mean_motion_dot": -0.01375553,
        "meta_mean_motion_ddot": 0,
        "tle_line1": "1 66951U 25286AC  25350.25003472 -.01375553  00000+0 -50864-2 0  9993",
        "tle_line2": "2 66951  53.1561  32.7432 0000910  89.2530  59.9458 15.90072189  2552"
      },
      "geometry": {
        "type": "Point",
        "coordinates": [
          47.09979629422976,
          22.482550085920153
        ]
      }
    },
    {
      "type": "Feature",
      "properties": {
        "norad_id": 66952,
        "name": "STARLINK-36122",
        "group": "last-30-days",
        "lat": 19.214363594614845,
        "lon": 44.17907485426741,
        "alt_km": 306.2389264396397,
        "timestamp": "2025-12-16T23:36:34.926041+00:00",
        "meta_object_name": "STARLINK-36122",
        "meta_object_id": "2025-286AD",
        "meta_epoch": "2025-12-16T06:00:02.999808",
        "meta_mean_motion": 15.89976891,
        "meta_eccentricity": 9.228e-05,
        "meta_inclination": 53.1561,
        "meta_ra_of_asc_node": 32.7518,
        "meta_arg_of_pericenter": 83.7216,
        "meta_mean_anomaly": 61.4364,
        "meta_ephemeris_type": 0,
        "meta_classification_type": "U",
        "meta_norad_cat_id": 66952,
        "meta_element_set_no": 999,
        "meta_rev_at_epoch": 255,
        "meta_bstar": -0.005050219,
        "meta_mean_motion_dot": -0.0136113,
        "meta_mean_motion_ddot": 0,
        "tle_line1": "1 66952U 25286AD  25350.25003472 -.01361130  00000+0 -50502-2 0  9999",
        "tle_line2": "2 66952  53.1561  32.7518 0000922  83.7216  61.4364 15.89976891  2556"
      },
      "geometry": {
        "type": "Point",
        "coordinates": [
          44.17907485426741,
          19.214363594614845
        ]
      }
    },
    {
      "type": "Feature",
      "properties": {
        "norad_id": 66953,
        "name": "HULIANWANG DIGUI-114",
        "group": "last-30-days",
        "lat": -30.445304619439945,
        "lon": 166.67173020426932,
        "alt_km": 1004.0828246471738,
        "timestamp": "2025-12-16T23:36:34.926055+00:00",
        "meta_object_name": "HULIANWANG DIGUI-114",
        "meta_object_id": "2025-287A",
        "meta_epoch": "2025-12-15T20:15:59.937408",
        "meta_mean_motion": 13.68689195,
        "meta_eccentricity": 0.00087999,
        "meta_inclination": 86.496,
        "meta_ra_of_asc_node": 345.0232,
        "meta_arg_of_pericenter": 195.8466,
        "meta_mean_anomaly": 164.2419,
        "meta_ephemeris_type": 0,
        "meta_classification_type": "U",
        "meta_norad_cat_id": 66953,
        "meta_element_set_no": 999,
        "meta_rev_at_epoch": 95,
        "meta_bstar": 2.5636052e-05,
        "meta_mean_motion_dot": 3.9e-07,
        "meta_mean_motion_ddot": 0,
        "tle_line1": "1 66953U 25287A   25349.84444372  .00000039  00000+0  25636-4 0  9999",
        "tle_line2": "2 66953  86.4960 345.0232 0008799 195.8466 164.2419 13.68689195   952"
      },
      "geometry": {
        "type": "Point",
        "coordinates": [
          166.67173020426932,
          -30.445304619439945
        ]
      }
    }
  ]
}